{
    "crs": {
        "properties": {
            "name": "urn:ogc:def:crs:EPSG::4490"
        },
        "type": "name"
    },
    "features": [{
            "geometry": null,
            "properties": {
                "dsbm": "420200",
                "glmbbh": "WLLK2",
                "glmblx": "glmblx0601",
                "lsh": "c907e01d-b3f9-4073-a2e0-fe35b15d1464",
                "qhbm": "420222",
                "sfzx": 1,
                "sjbb": 1,
                "sjly": "",
                "sjtbzt": "",
                "spbfdz": "",
                "spbh": "",
                "spdwjd": null,
                "spdwwd": null,
                "spmc": "",
                "spszwz": "纬六路跨2号排洪渠桥",
                "sszx": "csaqzx_ql",
                "tbsj": "0001-01-01T00:00:00",
                "yskzjbz": ""
            },
            "type": "Feature"
        }, {
            "geometry": null,
            "properties": {
                "dsbm": "420200",
                "glmbbh": "WLLK2",
                "glmblx": "glmblx0601",
                "lsh": "4882599e-ed2a-4036-b0cc-45e3a56a701c",
                "qhbm": "420222",
                "sfzx": 1,
                "sjbb": 1,
                "sjly": "",
                "sjtbzt": "",
                "spbfdz": "",
                "spbh": "",
                "spdwjd": null,
                "spdwwd": null,
                "spmc": "",
                "spszwz": "纬六路跨2号排洪渠桥",
                "sszx": "csaqzx_ql",
                "tbsj": "0001-01-01T00:00:00",
                "yskzjbz": ""
            },
            "type": "Feature"
        }, {
            "geometry": {
                "coordinates": [115.217214, 29.848658],
                "type": "Point"
            },
            "properties": {
                "dsbm": "420200",
                "glmbbh": "LHHDQ",
                "glmblx": "glmblx0601",
                "lsh": "87f3880a-a33e-4d39-9a9c-33c256d850ed",
                "qhbm": "420222",
                "sfzx": 1,
                "sjbb": 1,
                "sjly": "",
                "sjtbzt": "",
                "spbfdz": "10.92.8.177",
                "spbh": "10.92.8.177",
                "spdwjd": 115.217214,
                "spdwwd": 29.848658,
                "spmc": "枪机南二10.92.8.177",
                "spszwz": "莲花湖大桥（莲花湖一号桥主桥）",
                "sszx": "csaqzx_ql",
                "tbsj": "0001-01-01T00:00:00",
                "yskzjbz": ""
            },
            "type": "Feature"
        }, {
            "geometry": {
                "coordinates": [115.218144, 29.84869],
                "type": "Point"
            },
            "properties": {
                "dsbm": "420200",
                "glmbbh": "LHHDQ",
                "glmblx": "glmblx0601",
                "lsh": "f9f44187-0fe0-41a0-b640-f9b3ae711637",
                "qhbm": "420222",
                "sfzx": 1,
                "sjbb": 1,
                "sjly": "",
                "sjtbzt": "",
                "spbfdz": "10.92.8.178",
                "spbh": "10.92.8.178",
                "spdwjd": 115.218144,
                "spdwwd": 29.84869,
                "spmc": "枪机南三10.92.8.178",
                "spszwz": "莲花湖大桥（莲花湖一号桥主桥）",
                "sszx": "csaqzx_ql",
                "tbsj": "0001-01-01T00:00:00",
                "yskzjbz": ""
            },
            "type": "Feature"
        }, {
            "geometry": {
                "coordinates": [115.220005, 29.848754],
                "type": "Point"
            },
            "properties": {
                "dsbm": "420200",
                "glmbbh": "LHHDQ",
                "glmblx": "glmblx0601",
                "lsh": "7d4cad9f-2752-4445-a395-621929fc720b",
                "qhbm": "420222",
                "sfzx": 1,
                "sjbb": 1,
                "sjly": "",
                "sjtbzt": "",
                "spbfdz": "10.92.8.179",
                "spbh": "10.92.8.179",
                "spdwjd": 115.220005,
                "spdwwd": 29.848754,
                "spmc": "枪机南四10.92.8.179",
                "spszwz": "莲花湖大桥（莲花湖一号桥主桥）",
                "sszx": "csaqzx_ql",
                "tbsj": "0001-01-01T00:00:00",
                "yskzjbz": ""
            },
            "type": "Feature"
        }, {
            "geometry": {
                "coordinates": [115.220935, 29.848786],
                "type": "Point"
            },
            "properties": {
                "dsbm": "420200",
                "glmbbh": "LHHDQ",
                "glmblx": "glmblx0601",
                "lsh": "2da8d7e9-79fc-422e-8ab9-4ea9d8fe02eb",
                "qhbm": "420222",
                "sfzx": 1,
                "sjbb": 1,
                "sjly": "",
                "sjtbzt": "",
                "spbfdz": "10.92.8.180",
                "spbh": "10.92.8.180",
                "spdwjd": 115.220935,
                "spdwwd": 29.848786,
                "spmc": "枪机南五10.92.8.180",
                "spszwz": "莲花湖大桥（莲花湖一号桥主桥）",
                "sszx": "csaqzx_ql",
                "tbsj": "0001-01-01T00:00:00",
                "yskzjbz": ""
            },
            "type": "Feature"
        }, {
            "geometry": {
                "coordinates": [115.222173, 29.848825],
                "type": "Point"
            },
            "properties": {
                "dsbm": "420200",
                "glmbbh": "LHHDQ",
                "glmblx": "glmblx0601",
                "lsh": "5ac5d9e3-a975-45e9-bdfd-a6c70d32a5cb",
                "qhbm": "420222",
                "sfzx": 1,
                "sjbb": 1,
                "sjly": "",
                "sjtbzt": "",
                "spbfdz": "10.92.8.181",
                "spbh": "10.92.8.181",
                "spdwjd": 115.222173,
                "spdwwd": 29.848825,
                "spmc": "枪机南六10.92.8.181",
                "spszwz": "莲花湖大桥（莲花湖一号桥主桥）",
                "sszx": "csaqzx_ql",
                "tbsj": "0001-01-01T00:00:00",
                "yskzjbz": ""
            },
            "type": "Feature"
        }, {
            "geometry": {
                "coordinates": [115.223411, 29.848864],
                "type": "Point"
            },
            "properties": {
                "dsbm": "420200",
                "glmbbh": "LHHDQ",
                "glmblx": "glmblx0601",
                "lsh": "ef4f4294-9e15-42a2-8087-58a47dfde98b",
                "qhbm": "420222",
                "sfzx": 1,
                "sjbb": 1,
                "sjly": "",
                "sjtbzt": "",
                "spbfdz": "10.92.8.182",
                "spbh": "10.92.8.182",
                "spdwjd": 115.223411,
                "spdwwd": 29.848864,
                "spmc": "枪机南七10.92.8.182",
                "spszwz": "莲花湖大桥（莲花湖一号桥主桥）",
                "sszx": "csaqzx_ql",
                "tbsj": "0001-01-01T00:00:00",
                "yskzjbz": ""
            },
            "type": "Feature"
        }, {
            "geometry": null,
            "properties": {
                "dsbm": "420200",
                "glmbbh": "FYLQ",
                "glmblx": "glmblx0601",
                "lsh": "5ab9eecf-5b14-4cf6-9079-42642c94978e",
                "qhbm": "420222",
                "sfzx": 1,
                "sjbb": 1,
                "sjly": "",
                "sjtbzt": "",
                "spbfdz": "",
                "spbh": "",
                "spdwjd": null,
                "spdwwd": null,
                "spmc": "",
                "spszwz": "富阳路桥",
                "sszx": "csaqzx_ql",
                "tbsj": "0001-01-01T00:00:00",
                "yskzjbz": ""
            },
            "type": "Feature"
        }, {
            "geometry": null,
            "properties": {
                "dsbm": "420200",
                "glmbbh": "FYLQ",
                "glmblx": "glmblx0601",
                "lsh": "340eb843-35cb-4f13-9039-0181f1ebdc0c",
                "qhbm": "420222",
                "sfzx": 1,
                "sjbb": 1,
                "sjly": "",
                "sjtbzt": "",
                "spbfdz": "",
                "spbh": "",
                "spdwjd": null,
                "spdwwd": null,
                "spmc": "",
                "spszwz": "富阳路桥",
                "sszx": "csaqzx_ql",
                "tbsj": "0001-01-01T00:00:00",
                "yskzjbz": ""
            },
            "type": "Feature"
        }, {
            "geometry": {
                "coordinates": [115.222163, 29.849061],
                "type": "Point"
            },
            "properties": {
                "dsbm": "420200",
                "glmbbh": "LHHDQ",
                "glmblx": "glmblx0601",
                "lsh": "0fd28056-2613-4168-a977-d519b98fad23",
                "qhbm": "420222",
                "sfzx": 1,
                "sjbb": 1,
                "sjly": "",
                "sjtbzt": "",
                "spbfdz": "10.92.8.183",
                "spbh": "10.92.8.183",
                "spdwjd": 115.222163,
                "spdwwd": 29.849061,
                "spmc": "枪机北一10.92.8.183",
                "spszwz": "莲花湖大桥（莲花湖一号桥主桥）",
                "sszx": "csaqzx_ql",
                "tbsj": "0001-01-01T00:00:00",
                "yskzjbz": ""
            },
            "type": "Feature"
        }, {
            "geometry": {
                "coordinates": [115.217204, 29.848905],
                "type": "Point"
            },
            "properties": {
                "dsbm": "420200",
                "glmbbh": "LHHDQ",
                "glmblx": "glmblx0601",
                "lsh": "13a11dda-0187-451f-9ebd-1a76c5c8c8be",
                "qhbm": "420222",
                "sfzx": 1,
                "sjbb": 1,
                "sjly": "",
                "sjtbzt": "",
                "spbfdz": "10.92.8.187",
                "spbh": "10.92.8.187",
                "spdwjd": 115.217204,
                "spdwwd": 29.848905,
                "spmc": "枪机北五10.92.8.187",
                "spszwz": "莲花湖大桥（莲花湖一号桥主桥）",
                "sszx": "csaqzx_ql",
                "tbsj": "0001-01-01T00:00:00",
                "yskzjbz": ""
            },
            "type": "Feature"
        }, {
            "geometry": {
                "coordinates": [115.215965, 29.848866],
                "type": "Point"
            },
            "properties": {
                "dsbm": "420200",
                "glmbbh": "LHHDQ",
                "glmblx": "glmblx0601",
                "lsh": "bb2701b5-6395-4948-a0ab-f93dc132156e",
                "qhbm": "420222",
                "sfzx": 1,
                "sjbb": 1,
                "sjly": "",
                "sjtbzt": "",
                "spbfdz": "10.92.8.188",
                "spbh": "10.92.8.188",
                "spdwjd": 115.215965,
                "spdwwd": 29.848866,
                "spmc": "枪机北六10.92.8.188",
                "spszwz": "莲花湖大桥（莲花湖一号桥主桥）",
                "sszx": "csaqzx_ql",
                "tbsj": "0001-01-01T00:00:00",
                "yskzjbz": ""
            },
            "type": "Feature"
        }, {
            "geometry": {
                "coordinates": [115.215656, 29.848857],
                "type": "Point"
            },
            "properties": {
                "dsbm": "420200",
                "glmbbh": "LHHDQ",
                "glmblx": "glmblx0601",
                "lsh": "3362c31c-fe02-4b23-be3e-6328cda4bd0d",
                "qhbm": "420222",
                "sfzx": 1,
                "sjbb": 1,
                "sjly": "",
                "sjtbzt": "",
                "spbfdz": "10.92.8.189",
                "spbh": "10.92.8.189",
                "spdwjd": 115.215656,
                "spdwwd": 29.848857,
                "spmc": "枪机北七10.92.8.189",
                "spszwz": "莲花湖大桥（莲花湖一号桥主桥）",
                "sszx": "csaqzx_ql",
                "tbsj": "0001-01-01T00:00:00",
                "yskzjbz": ""
            },
            "type": "Feature"
        }, {
            "geometry": {
                "coordinates": [115.196894, 29.848268],
                "type": "Point"
            },
            "properties": {
                "dsbm": "420200",
                "glmbbh": "LFLSKQ",
                "glmblx": "glmblx0601",
                "lsh": "a6554111-41c7-4cec-847d-47023c787368",
                "qhbm": "420222",
                "sfzx": 1,
                "sjbb": 1,
                "sjly": "",
                "sjtbzt": "",
                "spbfdz": "10.92.8.162",
                "spbh": "10.92.8.162",
                "spdwjd": 115.196894,
                "spdwwd": 29.848268,
                "spmc": "林峰路上跨桥10.92.8.162",
                "spszwz": "林峰路上跨桥",
                "sszx": "csaqzx_ql",
                "tbsj": "0001-01-01T00:00:00",
                "yskzjbz": ""
            },
            "type": "Feature"
        }, {
            "geometry": {
                "coordinates": [115.206452, 29.832046],
                "type": "Point"
            },
            "properties": {
                "dsbm": "420200",
                "glmbbh": "NHQ",
                "glmblx": "glmblx0601",
                "lsh": "cc70980f-0cb1-4f92-a3b5-f21ad4972e88",
                "qhbm": "420222",
                "sfzx": 1,
                "sjbb": 1,
                "sjly": "",
                "sjtbzt": "",
                "spbfdz": "10.92.8.163",
                "spbh": "10.92.8.163",
                "spdwjd": 115.206452,
                "spdwwd": 29.832046,
                "spmc": "南河桥南侧10.92.8.163",
                "spszwz": "南河桥",
                "sszx": "csaqzx_ql",
                "tbsj": "0001-01-01T00:00:00",
                "yskzjbz": ""
            },
            "type": "Feature"
        }, {
            "geometry": {
                "coordinates": [115.200114, 29.858471],
                "type": "Point"
            },
            "properties": {
                "dsbm": "420200",
                "glmbbh": "GGGCRXTQ",
                "glmblx": "glmblx0601",
                "lsh": "b477a4de-4295-4fd7-97bc-e336c8d174d2",
                "qhbm": "420222",
                "sfzx": 1,
                "sjbb": 1,
                "sjly": "",
                "sjtbzt": "",
                "spbfdz": "10.92.8.222 ",
                "spbh": "10.92.8.222 ",
                "spdwjd": 115.200114,
                "spdwwd": 29.858471,
                "spmc": "光谷广场人行天桥南10.92.8.222 ",
                "spszwz": "光谷广场人行天桥",
                "sszx": "csaqzx_ql",
                "tbsj": "0001-01-01T00:00:00",
                "yskzjbz": ""
            },
            "type": "Feature"
        }, {
            "geometry": {
                "coordinates": [115.200543, 29.858552],
                "type": "Point"
            },
            "properties": {
                "dsbm": "420200",
                "glmbbh": "GGGCRXTQ",
                "glmblx": "glmblx0601",
                "lsh": "f9c999d8-067c-4bb4-8be3-2cac2b4c22c6",
                "qhbm": "420222",
                "sfzx": 1,
                "sjbb": 1,
                "sjly": "",
                "sjtbzt": "",
                "spbfdz": "10.92.8.223",
                "spbh": "10.92.8.223",
                "spdwjd": 115.200543,
                "spdwwd": 29.858552,
                "spmc": "光谷广场人行天桥南10.92.8.223",
                "spszwz": "光谷广场人行天桥",
                "sszx": "csaqzx_ql",
                "tbsj": "0001-01-01T00:00:00",
                "yskzjbz": ""
            },
            "type": "Feature"
        }, {
            "geometry": {
                "coordinates": [115.207436, 29.838918],
                "type": "Point"
            },
            "properties": {
                "dsbm": "420200",
                "glmbbh": "ZBCCRXTQ",
                "glmblx": "glmblx0601",
                "lsh": "f5f1a8ff-b302-40a4-a88f-dc4eb449fa53",
                "qhbm": "420222",
                "sfzx": 1,
                "sjbb": 1,
                "sjly": "",
                "sjtbzt": "",
                "spbfdz": "10.92.8.224",
                "spbh": "10.92.8.224",
                "spdwjd": 115.207436,
                "spdwwd": 29.838918,
                "spmc": "中百仓储人行天桥西南10.92.8.224",
                "spszwz": "中百仓储人行天桥",
                "sszx": "csaqzx_ql",
                "tbsj": "0001-01-01T00:00:00",
                "yskzjbz": ""
            },
            "type": "Feature"
        }, {
            "geometry": {
                "coordinates": [115.207779, 29.839071],
                "type": "Point"
            },
            "properties": {
                "dsbm": "420200",
                "glmbbh": "ZBCCRXTQ",
                "glmblx": "glmblx0601",
                "lsh": "1642429b-d0d4-48b9-b0c3-618443c4ed77",
                "qhbm": "420222",
                "sfzx": 1,
                "sjbb": 1,
                "sjly": "",
                "sjtbzt": "",
                "spbfdz": "10.92.8.225",
                "spbh": "10.92.8.225",
                "spdwjd": 115.207779,
                "spdwwd": 29.839071,
                "spmc": "中百仓储人行天桥东北10.92.8.225",
                "spszwz": "中百仓储人行天桥",
                "sszx": "csaqzx_ql",
                "tbsj": "0001-01-01T00:00:00",
                "yskzjbz": ""
            },
            "type": "Feature"
        }, {
            "geometry": {
                "coordinates": [115.232907, 29.871623],
                "type": "Point"
            },
            "properties": {
                "dsbm": "420200",
                "glmbbh": "FCXXRXTQ",
                "glmblx": "glmblx0601",
                "lsh": "b735c2af-c67a-4534-90cc-a6dcf5f50081",
                "qhbm": "420222",
                "sfzx": 1,
                "sjbb": 1,
                "sjly": "",
                "sjtbzt": "",
                "spbfdz": "10.92.8.226",
                "spbh": "10.92.8.226",
                "spdwjd": 115.232907,
                "spdwwd": 29.871623,
                "spmc": "富川小学天桥南侧10.92.8.226",
                "spszwz": "富川小学人行天桥",
                "sszx": "csaqzx_ql",
                "tbsj": "0001-01-01T00:00:00",
                "yskzjbz": ""
            },
            "type": "Feature"
        }, {
            "geometry": {
                "coordinates": [115.213317, 29.856509],
                "type": "Point"
            },
            "properties": {
                "dsbm": "420200",
                "glmbbh": "MYWDQ",
                "glmblx": "glmblx0601",
                "lsh": "25d17e4d-c794-4f6e-8159-aa427687c6af",
                "qhbm": "420222",
                "sfzx": 1,
                "sjbb": 1,
                "sjly": "",
                "sjtbzt": "",
                "spbfdz": "10.92.8.170",
                "spbh": "10.92.8.170",
                "spdwjd": 115.213317,
                "spdwwd": 29.856509,
                "spmc": "机西北一",
                "spszwz": "明月湾大桥（跨莲花湖二号桥）",
                "sszx": "csaqzx_ql",
                "tbsj": "0001-01-01T00:00:00",
                "yskzjbz": ""
            },
            "type": "Feature"
        }, {
            "geometry": {
                "coordinates": [115.212247, 29.852541],
                "type": "Point"
            },
            "properties": {
                "dsbm": "420200",
                "glmbbh": "MYWDQ",
                "glmblx": "glmblx0601",
                "lsh": "ebadb9f4-2d16-4299-9866-813e4594f93a",
                "qhbm": "420222",
                "sfzx": 1,
                "sjbb": 1,
                "sjly": "",
                "sjtbzt": "",
                "spbfdz": "10.92.8.130",
                "spbh": "10.92.8.130",
                "spdwjd": 115.212247,
                "spdwwd": 29.852541,
                "spmc": "明月湾高点全景摄像机（九鼎皇小区）",
                "spszwz": "明月湾大桥（跨莲花湖二号桥）",
                "sszx": "csaqzx_ql",
                "tbsj": "0001-01-01T00:00:00",
                "yskzjbz": ""
            },
            "type": "Feature"
        }, {
            "geometry": {
                "coordinates": [115.213345, 29.852878],
                "type": "Point"
            },
            "properties": {
                "dsbm": "420200",
                "glmbbh": "MYWDQ",
                "glmblx": "glmblx0601",
                "lsh": "39cfe095-a31f-4bde-9df8-64f464b4937f",
                "qhbm": "420222",
                "sfzx": 1,
                "sjbb": 1,
                "sjly": "",
                "sjtbzt": "",
                "spbfdz": "10.92.8.158",
                "spbh": "10.92.8.158",
                "spdwjd": 115.213345,
                "spdwwd": 29.852878,
                "spmc": "雷视东南一",
                "spszwz": "明月湾大桥（跨莲花湖二号桥）",
                "sszx": "csaqzx_ql",
                "tbsj": "0001-01-01T00:00:00",
                "yskzjbz": ""
            },
            "type": "Feature"
        }, {
            "geometry": {
                "coordinates": [115.213338, 29.856989],
                "type": "Point"
            },
            "properties": {
                "dsbm": "420200",
                "glmbbh": "MYWDQ",
                "glmblx": "glmblx0601",
                "lsh": "e384599e-e393-4162-9f08-91b3f8d89a06",
                "qhbm": "420222",
                "sfzx": 1,
                "sjbb": 1,
                "sjly": "",
                "sjtbzt": "",
                "spbfdz": "10.92.8.159",
                "spbh": "10.92.8.159",
                "spdwjd": 115.213338,
                "spdwwd": 29.856989,
                "spmc": "雷视西北二",
                "spszwz": "明月湾大桥（跨莲花湖二号桥）",
                "sszx": "csaqzx_ql",
                "tbsj": "0001-01-01T00:00:00",
                "yskzjbz": ""
            },
            "type": "Feature"
        }, {
            "geometry": {
                "coordinates": [115.213363, 29.853346],
                "type": "Point"
            },
            "properties": {
                "dsbm": "420200",
                "glmbbh": "MYWDQ",
                "glmblx": "glmblx0601",
                "lsh": "a9ba46bf-8912-4dc0-86c7-9c392857edb6",
                "qhbm": "420222",
                "sfzx": 1,
                "sjbb": 1,
                "sjly": "",
                "sjtbzt": "",
                "spbfdz": "10.92.8.164",
                "spbh": "10.92.8.164",
                "spdwjd": 115.213363,
                "spdwwd": 29.853346,
                "spmc": "枪机东南一",
                "spszwz": "明月湾大桥（跨莲花湖二号桥）",
                "sszx": "csaqzx_ql",
                "tbsj": "0001-01-01T00:00:00",
                "yskzjbz": ""
            },
            "type": "Feature"
        }, {
            "geometry": {
                "coordinates": [115.213393, 29.854048],
                "type": "Point"
            },
            "properties": {
                "dsbm": "420200",
                "glmbbh": "MYWDQ",
                "glmblx": "glmblx0601",
                "lsh": "97b1af54-f230-4fa9-8178-aceee03dcb63",
                "qhbm": "420222",
                "sfzx": 1,
                "sjbb": 1,
                "sjly": "",
                "sjtbzt": "",
                "spbfdz": "10.92.8.165",
                "spbh": "10.92.8.165",
                "spdwjd": 115.213393,
                "spdwwd": 29.854048,
                "spmc": "枪机东南二",
                "spszwz": "明月湾大桥（跨莲花湖二号桥）",
                "sszx": "csaqzx_ql",
                "tbsj": "0001-01-01T00:00:00",
                "yskzjbz": ""
            },
            "type": "Feature"
        }, {
            "geometry": {
                "coordinates": [115.213429, 29.854911],
                "type": "Point"
            },
            "properties": {
                "dsbm": "420200",
                "glmbbh": "MYWDQ",
                "glmblx": "glmblx0601",
                "lsh": "fd0a2281-cbe2-4cdf-a539-7e6c5a47b420",
                "qhbm": "420222",
                "sfzx": 1,
                "sjbb": 1,
                "sjly": "",
                "sjtbzt": "",
                "spbfdz": "10.92.8.166",
                "spbh": "10.92.8.166",
                "spdwjd": 115.213429,
                "spdwwd": 29.854911,
                "spmc": "枪机东南三",
                "spszwz": "明月湾大桥（跨莲花湖二号桥）",
                "sszx": "csaqzx_ql",
                "tbsj": "0001-01-01T00:00:00",
                "yskzjbz": ""
            },
            "type": "Feature"
        }, {
            "geometry": {
                "coordinates": [115.213465, 29.8558],
                "type": "Point"
            },
            "properties": {
                "dsbm": "420200",
                "glmbbh": "MYWDQ",
                "glmblx": "glmblx0601",
                "lsh": "3c2aacb0-d034-40a6-a69d-c2ee3394b0a6",
                "qhbm": "420222",
                "sfzx": 1,
                "sjbb": 1,
                "sjly": "",
                "sjtbzt": "",
                "spbfdz": "10.92.8.167",
                "spbh": "10.92.8.167",
                "spdwjd": 115.213465,
                "spdwwd": 29.8558,
                "spmc": "枪机东南四",
                "spszwz": "明月湾大桥（跨莲花湖二号桥）",
                "sszx": "csaqzx_ql",
                "tbsj": "0001-01-01T00:00:00",
                "yskzjbz": ""
            },
            "type": "Feature"
        }, {
            "geometry": {
                "coordinates": [115.213494, 29.856503],
                "type": "Point"
            },
            "properties": {
                "dsbm": "420200",
                "glmbbh": "MYWDQ",
                "glmblx": "glmblx0601",
                "lsh": "f421fcd3-8855-4e8c-af63-09d9b9d2ad61",
                "qhbm": "420222",
                "sfzx": 1,
                "sjbb": 1,
                "sjly": "",
                "sjtbzt": "",
                "spbfdz": "10.92.8.168",
                "spbh": "10.92.8.168",
                "spdwjd": 115.213494,
                "spdwwd": 29.856503,
                "spmc": "枪机东南五",
                "spszwz": "明月湾大桥（跨莲花湖二号桥）",
                "sszx": "csaqzx_ql",
                "tbsj": "0001-01-01T00:00:00",
                "yskzjbz": ""
            },
            "type": "Feature"
        }, {
            "geometry": {
                "coordinates": [115.213514, 29.856983],
                "type": "Point"
            },
            "properties": {
                "dsbm": "420200",
                "glmbbh": "MYWDQ",
                "glmblx": "glmblx0601",
                "lsh": "d07e63df-d55d-4b17-92da-bc905d9f5db8",
                "qhbm": "420222",
                "sfzx": 1,
                "sjbb": 1,
                "sjly": "",
                "sjtbzt": "",
                "spbfdz": "10.92.8.169",
                "spbh": "10.92.8.169",
                "spdwjd": 115.213514,
                "spdwwd": 29.856983,
                "spmc": "枪机东南六",
                "spszwz": "明月湾大桥（跨莲花湖二号桥）",
                "sszx": "csaqzx_ql",
                "tbsj": "0001-01-01T00:00:00",
                "yskzjbz": ""
            },
            "type": "Feature"
        }, {
            "geometry": {
                "coordinates": [0.0, 0.0],
                "type": "Point"
            },
            "properties": {
                "dsbm": "420200",
                "glmbbh": "DSHDQ",
                "glmblx": "glmblx0601",
                "lsh": "4616c396-60ac-48c0-9d22-4a05af4a6f17",
                "qhbm": "420222",
                "sfzx": 1,
                "sjbb": 1,
                "sjly": "",
                "sjtbzt": "",
                "spbfdz": "10.92.8.229",
                "spbh": "10.92.8.229",
                "spdwjd": 0.0,
                "spdwwd": 0.0,
                "spmc": "",
                "spszwz": "独山湖大桥",
                "sszx": "csaqzx_ql",
                "tbsj": "0001-01-01T00:00:00",
                "yskzjbz": ""
            },
            "type": "Feature"
        }, {
            "geometry": {
                "coordinates": [115.213289, 29.855806],
                "type": "Point"
            },
            "properties": {
                "dsbm": "420200",
                "glmbbh": "MYWDQ",
                "glmblx": "glmblx0601",
                "lsh": "37cc0df8-d6ae-487f-a209-6ac2b504f15f",
                "qhbm": "420222",
                "sfzx": 1,
                "sjbb": 1,
                "sjly": "",
                "sjtbzt": "",
                "spbfdz": "10.92.8.171",
                "spbh": "10.92.8.171",
                "spdwjd": 115.213289,
                "spdwwd": 29.855806,
                "spmc": "枪机西北二",
                "spszwz": "明月湾大桥（跨莲花湖二号桥）",
                "sszx": "csaqzx_ql",
                "tbsj": "0001-01-01T00:00:00",
                "yskzjbz": ""
            },
            "type": "Feature"
        }, {
            "geometry": {
                "coordinates": [115.213216, 29.854054],
                "type": "Point"
            },
            "properties": {
                "dsbm": "420200",
                "glmbbh": "MYWDQ",
                "glmblx": "glmblx0601",
                "lsh": "485a3b69-2bab-463d-bef0-e712abe04192",
                "qhbm": "420222",
                "sfzx": 1,
                "sjbb": 1,
                "sjly": "",
                "sjtbzt": "",
                "spbfdz": "10.92.8.173",
                "spbh": "10.92.8.173",
                "spdwjd": 115.213216,
                "spdwwd": 29.854054,
                "spmc": "枪机西北四",
                "spszwz": "明月湾大桥（跨莲花湖二号桥）",
                "sszx": "csaqzx_ql",
                "tbsj": "0001-01-01T00:00:00",
                "yskzjbz": ""
            },
            "type": "Feature"
        }, {
            "geometry": {
                "coordinates": [115.213187, 29.853351],
                "type": "Point"
            },
            "properties": {
                "dsbm": "420200",
                "glmbbh": "MYWDQ",
                "glmblx": "glmblx0601",
                "lsh": "4315667e-559d-4b0f-8a46-e8c1dd3720e0",
                "qhbm": "420222",
                "sfzx": 1,
                "sjbb": 1,
                "sjly": "",
                "sjtbzt": "",
                "spbfdz": "10.92.8.174",
                "spbh": "10.92.8.174",
                "spdwjd": 115.213187,
                "spdwwd": 29.853351,
                "spmc": "枪机西北五",
                "spszwz": "明月湾大桥（跨莲花湖二号桥）",
                "sszx": "csaqzx_ql",
                "tbsj": "0001-01-01T00:00:00",
                "yskzjbz": ""
            },
            "type": "Feature"
        }, {
            "geometry": {
                "coordinates": [115.213157, 29.852639],
                "type": "Point"
            },
            "properties": {
                "dsbm": "420200",
                "glmbbh": "MYWDQ",
                "glmblx": "glmblx0601",
                "lsh": "fcddf9e5-66a8-4d8d-a7b9-2c7b75be0cd3",
                "qhbm": "420222",
                "sfzx": 1,
                "sjbb": 1,
                "sjly": "",
                "sjtbzt": "",
                "spbfdz": "10.92.8.175",
                "spbh": "10.92.8.175",
                "spdwjd": 115.213157,
                "spdwwd": 29.852639,
                "spmc": "枪机西北六",
                "spszwz": "明月湾大桥（跨莲花湖二号桥）",
                "sszx": "csaqzx_ql",
                "tbsj": "0001-01-01T00:00:00",
                "yskzjbz": ""
            },
            "type": "Feature"
        }, {
            "geometry": {
                "coordinates": [115.205344, 29.844253],
                "type": "Point"
            },
            "properties": {
                "dsbm": "420200",
                "glmbbh": "LYDDLJQ",
                "glmblx": "glmblx0601",
                "lsh": "5085d04f-3db0-4151-b314-ff56b012f5e7",
                "qhbm": "420222",
                "sfzx": 1,
                "sjbb": 1,
                "sjly": "",
                "sjtbzt": "",
                "spbfdz": "10.92.8.131",
                "spbh": "10.92.8.131",
                "spdwjd": 115.205344,
                "spdwwd": 29.844253,
                "spmc": "陵园大道立交桥高点（三江酒店）",
                "spszwz": "陵园大道立交桥",
                "sszx": "csaqzx_ql",
                "tbsj": "0001-01-01T00:00:00",
                "yskzjbz": ""
            },
            "type": "Feature"
        }, {
            "geometry": {
                "coordinates": [115.204265, 29.844651],
                "type": "Point"
            },
            "properties": {
                "dsbm": "420200",
                "glmbbh": "LYDDLJQ",
                "glmblx": "glmblx0601",
                "lsh": "1a85a350-4513-4f62-a078-1b1755910f3c",
                "qhbm": "420222",
                "sfzx": 1,
                "sjbb": 1,
                "sjly": "",
                "sjtbzt": "",
                "spbfdz": "10.92.8.154",
                "spbh": "10.92.8.154",
                "spdwjd": 115.204265,
                "spdwwd": 29.844651,
                "spmc": "陵园大道立交桥北",
                "spszwz": "陵园大道立交桥",
                "sszx": "csaqzx_ql",
                "tbsj": "0001-01-01T00:00:00",
                "yskzjbz": ""
            },
            "type": "Feature"
        }, {
            "geometry": {
                "coordinates": [115.20417, 29.843955],
                "type": "Point"
            },
            "properties": {
                "dsbm": "420200",
                "glmbbh": "LYDDLJQ",
                "glmblx": "glmblx0601",
                "lsh": "fd115b2c-f648-4a04-b87c-69bfee992b80",
                "qhbm": "420222",
                "sfzx": 1,
                "sjbb": 1,
                "sjly": "",
                "sjtbzt": "",
                "spbfdz": "10.92.8.155",
                "spbh": "10.92.8.155",
                "spdwjd": 115.20417,
                "spdwwd": 29.843955,
                "spmc": "陵园大道立交桥西",
                "spszwz": "陵园大道立交桥",
                "sszx": "csaqzx_ql",
                "tbsj": "0001-01-01T00:00:00",
                "yskzjbz": ""
            },
            "type": "Feature"
        }, {
            "geometry": {
                "coordinates": [115.204715, 29.843961],
                "type": "Point"
            },
            "properties": {
                "dsbm": "420200",
                "glmbbh": "LYDDLJQ",
                "glmblx": "glmblx0601",
                "lsh": "7d3bca76-df93-426f-a5ac-2c2e3668bfc6",
                "qhbm": "420222",
                "sfzx": 1,
                "sjbb": 1,
                "sjly": "",
                "sjtbzt": "",
                "spbfdz": "10.92.8.156",
                "spbh": "10.92.8.156",
                "spdwjd": 115.204715,
                "spdwwd": 29.843961,
                "spmc": "陵园大道立交桥南",
                "spszwz": "陵园大道立交桥",
                "sszx": "csaqzx_ql",
                "tbsj": "0001-01-01T00:00:00",
                "yskzjbz": ""
            },
            "type": "Feature"
        }, {
            "geometry": {
                "coordinates": [115.20472, 29.844604],
                "type": "Point"
            },
            "properties": {
                "dsbm": "420200",
                "glmbbh": "LYDDLJQ",
                "glmblx": "glmblx0601",
                "lsh": "79a13eee-4033-4c8f-a20c-521032d385a9",
                "qhbm": "420222",
                "sfzx": 1,
                "sjbb": 1,
                "sjly": "",
                "sjtbzt": "",
                "spbfdz": "10.92.8.157",
                "spbh": "10.92.8.157",
                "spdwjd": 115.20472,
                "spdwwd": 29.844604,
                "spmc": "陵园大道立交桥东侧",
                "spszwz": "陵园大道立交桥",
                "sszx": "csaqzx_ql",
                "tbsj": "0001-01-01T00:00:00",
                "yskzjbz": ""
            },
            "type": "Feature"
        }, {
            "geometry": {
                "coordinates": [115.231457, 29.882065],
                "type": "Point"
            },
            "properties": {
                "dsbm": "420200",
                "glmbbh": "XFDD1",
                "glmblx": "glmblx0601",
                "lsh": "914e6d1d-1e57-460d-86b5-fd1e4e1fabe5",
                "qhbm": "420222",
                "sfzx": 1,
                "sjbb": 1,
                "sjly": "",
                "sjtbzt": "",
                "spbfdz": "10.92.8.132",
                "spbh": "10.92.8.132",
                "spdwjd": 115.231457,
                "spdwwd": 29.882065,
                "spmc": "兴富大道1号桥东侧",
                "spszwz": "兴富大道1号桥",
                "sszx": "csaqzx_ql",
                "tbsj": "0001-01-01T00:00:00",
                "yskzjbz": ""
            },
            "type": "Feature"
        }, {
            "geometry": {
                "coordinates": [115.229748, 29.882329],
                "type": "Point"
            },
            "properties": {
                "dsbm": "420200",
                "glmbbh": "XFDD1",
                "glmblx": "glmblx0601",
                "lsh": "480795a3-aa67-44f2-90db-56f52a7a0063",
                "qhbm": "420222",
                "sfzx": 1,
                "sjbb": 1,
                "sjly": "",
                "sjtbzt": "",
                "spbfdz": "10.92.8.133",
                "spbh": "10.92.8.133",
                "spdwjd": 115.229748,
                "spdwwd": 29.882329,
                "spmc": "兴富大道1号桥西侧",
                "spszwz": "兴富大道1号桥",
                "sszx": "csaqzx_ql",
                "tbsj": "0001-01-01T00:00:00",
                "yskzjbz": ""
            },
            "type": "Feature"
        }, {
            "geometry": {
                "coordinates": [115.213252, 29.854917],
                "type": "Point"
            },
            "properties": {
                "dsbm": "420200",
                "glmbbh": "MYWDQ",
                "glmblx": "glmblx0601",
                "lsh": "b6a33664-d23f-4b0c-9aa1-b74266fb664d",
                "qhbm": "420222",
                "sfzx": 1,
                "sjbb": 1,
                "sjly": "",
                "sjtbzt": "",
                "spbfdz": "10.92.8.172",
                "spbh": "10.92.8.172",
                "spdwjd": 115.213252,
                "spdwwd": 29.854917,
                "spmc": "枪机西北三",
                "spszwz": "明月湾大桥（跨莲花湖二号桥）",
                "sszx": "csaqzx_ql",
                "tbsj": "0001-01-01T00:00:00",
                "yskzjbz": ""
            },
            "type": "Feature"
        }, {
            "geometry": {
                "coordinates": [115.211298, 29.883739],
                "type": "Point"
            },
            "properties": {
                "dsbm": "420200",
                "glmbbh": "XFDD2",
                "glmblx": "glmblx0601",
                "lsh": "c9f326c6-ecea-44ea-9601-48029842ca1d",
                "qhbm": "420222",
                "sfzx": 1,
                "sjbb": 1,
                "sjly": "",
                "sjtbzt": "",
                "spbfdz": "10.92.8.134",
                "spbh": "10.92.8.134",
                "spdwjd": 115.211298,
                "spdwwd": 29.883739,
                "spmc": "兴富大道2号桥西侧",
                "spszwz": "兴富大道2号桥",
                "sszx": "csaqzx_ql",
                "tbsj": "0001-01-01T00:00:00",
                "yskzjbz": ""
            },
            "type": "Feature"
        }, {
            "geometry": {
                "coordinates": [115.223401, 29.849104],
                "type": "Point"
            },
            "properties": {
                "dsbm": "420200",
                "glmbbh": "LHHDQ",
                "glmblx": "glmblx0601",
                "lsh": "be5f733e-8368-44de-ae90-0506e9c37ab6",
                "qhbm": "420222",
                "sfzx": 1,
                "sjbb": 1,
                "sjly": "",
                "sjtbzt": "",
                "spbfdz": "10.92.8.161",
                "spbh": "10.92.8.161",
                "spdwjd": 115.223401,
                "spdwwd": 29.849104,
                "spmc": "雷士二北",
                "spszwz": "莲花湖大桥（莲花湖一号桥主桥）",
                "sszx": "csaqzx_ql",
                "tbsj": "0001-01-01T00:00:00",
                "yskzjbz": ""
            },
            "type": "Feature"
        }, {
            "geometry": {
                "coordinates": [0.0, 0.0],
                "type": "Point"
            },
            "properties": {
                "dsbm": "420200",
                "glmbbh": "DSHDQ",
                "glmblx": "glmblx0601",
                "lsh": "ac8da4ce-03b6-4833-9f1d-9b11f6d5cb3c",
                "qhbm": "420222",
                "sfzx": 1,
                "sjbb": 1,
                "sjly": "",
                "sjtbzt": "",
                "spbfdz": "10.92.8.230",
                "spbh": "10.92.8.230",
                "spdwjd": 0.0,
                "spdwwd": 0.0,
                "spmc": "",
                "spszwz": "独山湖大桥",
                "sszx": "csaqzx_ql",
                "tbsj": "0001-01-01T00:00:00",
                "yskzjbz": ""
            },
            "type": "Feature"
        }, {
            "geometry": {
                "coordinates": [115.212743, 29.883394],
                "type": "Point"
            },
            "properties": {
                "dsbm": "420200",
                "glmbbh": "XFDD2",
                "glmblx": "glmblx0601",
                "lsh": "dcd312ca-b33f-4c8f-bdd2-d83c362f9050",
                "qhbm": "420222",
                "sfzx": 1,
                "sjbb": 1,
                "sjly": "",
                "sjtbzt": "",
                "spbfdz": "10.92.8.135",
                "spbh": "10.92.8.135",
                "spdwjd": 115.212743,
                "spdwwd": 29.883394,
                "spmc": "兴富大道2号桥东侧",
                "spszwz": "兴富大道2号桥",
                "sszx": "csaqzx_ql",
                "tbsj": "0001-01-01T00:00:00",
                "yskzjbz": ""
            },
            "type": "Feature"
        }, {
            "geometry": {
                "coordinates": [115.191595, 29.884888],
                "type": "Point"
            },
            "properties": {
                "dsbm": "420200",
                "glmbbh": "XFDD3",
                "glmblx": "glmblx0601",
                "lsh": "468899da-55c0-4eb1-9f18-005d8d3973e2",
                "qhbm": "420222",
                "sfzx": 1,
                "sjbb": 1,
                "sjly": "",
                "sjtbzt": "",
                "spbfdz": "10.92.8.136",
                "spbh": "10.92.8.136",
                "spdwjd": 115.191595,
                "spdwwd": 29.884888,
                "spmc": "兴富大道3号桥西侧",
                "spszwz": "兴富大道3号桥",
                "sszx": "csaqzx_ql",
                "tbsj": "0001-01-01T00:00:00",
                "yskzjbz": ""
            },
            "type": "Feature"
        }, {
            "geometry": {
                "coordinates": [115.190838, 29.885236],
                "type": "Point"
            },
            "properties": {
                "dsbm": "420200",
                "glmbbh": "XFDD3",
                "glmblx": "glmblx0601",
                "lsh": "71372e24-9af6-43c2-9205-812524e7b1dd",
                "qhbm": "420222",
                "sfzx": 1,
                "sjbb": 1,
                "sjly": "",
                "sjtbzt": "",
                "spbfdz": "10.92.8.137",
                "spbh": "10.92.8.137",
                "spdwjd": 115.190838,
                "spdwwd": 29.885236,
                "spmc": "兴富大道3号桥东侧",
                "spszwz": "兴富大道3号桥",
                "sszx": "csaqzx_ql",
                "tbsj": "0001-01-01T00:00:00",
                "yskzjbz": ""
            },
            "type": "Feature"
        }, {
            "geometry": {
                "coordinates": [115.214012, 29.880523],
                "type": "Point"
            },
            "properties": {
                "dsbm": "420200",
                "glmbbh": "LYLQ",
                "glmblx": "glmblx0601",
                "lsh": "f5029c61-b087-4a2e-841d-e34f2ce9ec4b",
                "qhbm": "420222",
                "sfzx": 1,
                "sjbb": 1,
                "sjly": "",
                "sjtbzt": "",
                "spbfdz": "10.92.8.138",
                "spbh": "10.92.8.138",
                "spdwjd": 115.214012,
                "spdwwd": 29.880523,
                "spmc": "园林路桥南侧",
                "spszwz": "园林路桥",
                "sszx": "csaqzx_ql",
                "tbsj": "0001-01-01T00:00:00",
                "yskzjbz": ""
            },
            "type": "Feature"
        }, {
            "geometry": {
                "coordinates": [115.214465, 29.881866],
                "type": "Point"
            },
            "properties": {
                "dsbm": "420200",
                "glmbbh": "LYLQ",
                "glmblx": "glmblx0601",
                "lsh": "007ca073-106c-4752-b323-6d6ef091a042",
                "qhbm": "420222",
                "sfzx": 1,
                "sjbb": 1,
                "sjly": "",
                "sjtbzt": "",
                "spbfdz": "10.92.8.139",
                "spbh": "10.92.8.139",
                "spdwjd": 115.214465,
                "spdwwd": 29.881866,
                "spmc": "园林路桥北侧",
                "spszwz": "园林路桥",
                "sszx": "csaqzx_ql",
                "tbsj": "0001-01-01T00:00:00",
                "yskzjbz": ""
            },
            "type": "Feature"
        }, {
            "geometry": {
                "coordinates": [115.212617, 29.878401],
                "type": "Point"
            },
            "properties": {
                "dsbm": "420200",
                "glmbbh": "WBLK1",
                "glmblx": "glmblx0601",
                "lsh": "d79e2d78-7713-4cb3-ad2a-d6360e866c6f",
                "qhbm": "420222",
                "sfzx": 1,
                "sjbb": 1,
                "sjly": "",
                "sjtbzt": "",
                "spbfdz": "10.92.8.140",
                "spbh": "10.92.8.140",
                "spdwjd": 115.212617,
                "spdwwd": 29.878401,
                "spmc": "纬八路跨1号西侧",
                "spszwz": "纬八路跨1号排洪渠桥",
                "sszx": "csaqzx_ql",
                "tbsj": "0001-01-01T00:00:00",
                "yskzjbz": ""
            },
            "type": "Feature"
        }, {
            "geometry": {
                "coordinates": [115.215674, 29.878033],
                "type": "Point"
            },
            "properties": {
                "dsbm": "420200",
                "glmbbh": "WBLK1",
                "glmblx": "glmblx0601",
                "lsh": "bc2f3341-bd68-4630-925d-f427da6f9fba",
                "qhbm": "420222",
                "sfzx": 1,
                "sjbb": 1,
                "sjly": "",
                "sjtbzt": "",
                "spbfdz": "10.92.8.141",
                "spbh": "10.92.8.141",
                "spdwjd": 115.215674,
                "spdwwd": 29.878033,
                "spmc": "纬八路跨1号东侧",
                "spszwz": "纬八路跨1号排洪渠桥",
                "sszx": "csaqzx_ql",
                "tbsj": "0001-01-01T00:00:00",
                "yskzjbz": ""
            },
            "type": "Feature"
        }, {
            "geometry": {
                "coordinates": [115.191559, 29.877344],
                "type": "Point"
            },
            "properties": {
                "dsbm": "420200",
                "glmbbh": "WBLK2",
                "glmblx": "glmblx0601",
                "lsh": "a22165ae-1512-4c98-97f3-b102a7a71c5b",
                "qhbm": "420222",
                "sfzx": 1,
                "sjbb": 1,
                "sjly": "",
                "sjtbzt": "",
                "spbfdz": "10.92.8.142",
                "spbh": "10.92.8.142",
                "spdwjd": 115.191559,
                "spdwwd": 29.877344,
                "spmc": "纬八路跨2号桥东侧",
                "spszwz": "纬八路跨2号排洪渠桥",
                "sszx": "csaqzx_ql",
                "tbsj": "0001-01-01T00:00:00",
                "yskzjbz": ""
            },
            "type": "Feature"
        }, {
            "geometry": {
                "coordinates": [115.190092, 29.877597],
                "type": "Point"
            },
            "properties": {
                "dsbm": "420200",
                "glmbbh": "WBLK2",
                "glmblx": "glmblx0601",
                "lsh": "87811dd9-488d-4a54-9705-fbcde07dfcae",
                "qhbm": "420222",
                "sfzx": 1,
                "sjbb": 1,
                "sjly": "",
                "sjtbzt": "",
                "spbfdz": "10.92.8.143",
                "spbh": "10.92.8.143",
                "spdwjd": 115.190092,
                "spdwwd": 29.877597,
                "spmc": "纬八路跨2号桥西侧",
                "spszwz": "纬八路跨2号排洪渠桥",
                "sszx": "csaqzx_ql",
                "tbsj": "0001-01-01T00:00:00",
                "yskzjbz": ""
            },
            "type": "Feature"
        }, {
            "geometry": {
                "coordinates": [115.238573, 29.875516],
                "type": "Point"
            },
            "properties": {
                "dsbm": "420200",
                "glmbbh": "XZDDQ",
                "glmblx": "glmblx0601",
                "lsh": "2a8ca67a-4d3d-46ca-8888-096468646476",
                "qhbm": "420222",
                "sfzx": 1,
                "sjbb": 1,
                "sjly": "",
                "sjtbzt": "",
                "spbfdz": "10.92.8.144",
                "spbh": "10.92.8.144",
                "spdwjd": 115.238573,
                "spdwwd": 29.875516,
                "spmc": "下稚大道桥北",
                "spszwz": "下稚大道桥",
                "sszx": "csaqzx_ql",
                "tbsj": "0001-01-01T00:00:00",
                "yskzjbz": ""
            },
            "type": "Feature"
        }, {
            "geometry": {
                "coordinates": [115.238195, 29.875093],
                "type": "Point"
            },
            "properties": {
                "dsbm": "420200",
                "glmbbh": "XZDDQ",
                "glmblx": "glmblx0601",
                "lsh": "e691dc61-21da-4fa5-b69e-be2578a22476",
                "qhbm": "420222",
                "sfzx": 1,
                "sjbb": 1,
                "sjly": "",
                "sjtbzt": "",
                "spbfdz": "10.92.8.145",
                "spbh": "10.92.8.145",
                "spdwjd": 115.238195,
                "spdwwd": 29.875093,
                "spmc": "下稚大道桥南",
                "spszwz": "下稚大道桥",
                "sszx": "csaqzx_ql",
                "tbsj": "0001-01-01T00:00:00",
                "yskzjbz": ""
            },
            "type": "Feature"
        }, {
            "geometry": {
                "coordinates": [115.215446, 29.871748],
                "type": "Point"
            },
            "properties": {
                "dsbm": "420200",
                "glmbbh": "WLLK1",
                "glmblx": "glmblx0601",
                "lsh": "1fb32d2d-8059-42af-acc3-5a0fcfc737f4",
                "qhbm": "420222",
                "sfzx": 1,
                "sjbb": 1,
                "sjly": "",
                "sjtbzt": "",
                "spbfdz": "10.92.8.146",
                "spbh": "10.92.8.146",
                "spdwjd": 115.215446,
                "spdwwd": 29.871748,
                "spmc": "纬六路跨1号东侧",
                "spszwz": "纬六路跨1号排洪渠桥",
                "sszx": "csaqzx_ql",
                "tbsj": "0001-01-01T00:00:00",
                "yskzjbz": ""
            },
            "type": "Feature"
        }, {
            "geometry": {
                "coordinates": [115.212589, 29.871958],
                "type": "Point"
            },
            "properties": {
                "dsbm": "420200",
                "glmbbh": "WLLK1",
                "glmblx": "glmblx0601",
                "lsh": "3c2eca76-0468-442f-8fda-3cc89d57a563",
                "qhbm": "420222",
                "sfzx": 1,
                "sjbb": 1,
                "sjly": "",
                "sjtbzt": "",
                "spbfdz": "10.92.8.147",
                "spbh": "10.92.8.147",
                "spdwjd": 115.212589,
                "spdwwd": 29.871958,
                "spmc": "纬六路跨1号西侧",
                "spszwz": "纬六路跨1号排洪渠桥",
                "sszx": "csaqzx_ql",
                "tbsj": "0001-01-01T00:00:00",
                "yskzjbz": ""
            },
            "type": "Feature"
        }, {
            "geometry": {
                "coordinates": [115.21573, 29.867579],
                "type": "Point"
            },
            "properties": {
                "dsbm": "420200",
                "glmbbh": "YXDDQ",
                "glmblx": "glmblx0601",
                "lsh": "88656fc3-69c9-4249-ae05-94335c9e6d15",
                "qhbm": "420222",
                "sfzx": 1,
                "sjbb": 1,
                "sjly": "",
                "sjtbzt": "",
                "spbfdz": "10.92.8.152",
                "spbh": "10.92.8.152",
                "spdwjd": 115.21573,
                "spdwwd": 29.867579,
                "spmc": "阳新大道东侧",
                "spszwz": "阳新大道桥",
                "sszx": "csaqzx_ql",
                "tbsj": "0001-01-01T00:00:00",
                "yskzjbz": ""
            },
            "type": "Feature"
        }, {
            "geometry": {
                "coordinates": [115.214595, 29.867901],
                "type": "Point"
            },
            "properties": {
                "dsbm": "420200",
                "glmbbh": "YXDDQ",
                "glmblx": "glmblx0601",
                "lsh": "6705fb02-63e6-416f-853d-625cbea8759e",
                "qhbm": "420222",
                "sfzx": 1,
                "sjbb": 1,
                "sjly": "",
                "sjtbzt": "",
                "spbfdz": "10.92.8.153",
                "spbh": "10.92.8.153",
                "spdwjd": 115.214595,
                "spdwwd": 29.867901,
                "spmc": "阳新大道西侧",
                "spszwz": "阳新大道桥",
                "sszx": "csaqzx_ql",
                "tbsj": "0001-01-01T00:00:00",
                "yskzjbz": ""
            },
            "type": "Feature"
        }, {
            "geometry": {
                "coordinates": [115.215667, 29.848605],
                "type": "Point"
            },
            "properties": {
                "dsbm": "420200",
                "glmbbh": "LHHDQ",
                "glmblx": "glmblx0601",
                "lsh": "c0801a1f-9545-4091-a95f-4e090a000b5b",
                "qhbm": "420222",
                "sfzx": 1,
                "sjbb": 1,
                "sjly": "",
                "sjtbzt": "",
                "spbfdz": "10.92.8.160",
                "spbh": "10.92.8.160",
                "spdwjd": 115.215667,
                "spdwwd": 29.848605,
                "spmc": "雷士一南",
                "spszwz": "莲花湖大桥（莲花湖一号桥主桥）",
                "sszx": "csaqzx_ql",
                "tbsj": "0001-01-01T00:00:00",
                "yskzjbz": ""
            },
            "type": "Feature"
        }, {
            "geometry": {
                "coordinates": [115.220925, 29.84902],
                "type": "Point"
            },
            "properties": {
                "dsbm": "420200",
                "glmbbh": "LHHDQ",
                "glmblx": "glmblx0601",
                "lsh": "ddd3858d-1694-438a-9370-a9d6d328e3c2",
                "qhbm": "420222",
                "sfzx": 1,
                "sjbb": 1,
                "sjly": "",
                "sjtbzt": "",
                "spbfdz": "10.92.8.184",
                "spbh": "10.92.8.184",
                "spdwjd": 115.220925,
                "spdwwd": 29.84902,
                "spmc": "枪机北二10.92.8.184",
                "spszwz": "莲花湖大桥（莲花湖一号桥主桥）",
                "sszx": "csaqzx_ql",
                "tbsj": "0001-01-01T00:00:00",
                "yskzjbz": ""
            },
            "type": "Feature"
        }, {
            "geometry": {
                "coordinates": [115.219995, 29.848991],
                "type": "Point"
            },
            "properties": {
                "dsbm": "420200",
                "glmbbh": "LHHDQ",
                "glmblx": "glmblx0601",
                "lsh": "27fa006c-b6b8-4edf-a1ce-971aa92b0112",
                "qhbm": "420222",
                "sfzx": 1,
                "sjbb": 1,
                "sjly": "",
                "sjtbzt": "",
                "spbfdz": "10.92.8.185",
                "spbh": "10.92.8.185",
                "spdwjd": 115.219995,
                "spdwwd": 29.848991,
                "spmc": "枪机北三10.92.8.185",
                "spszwz": "莲花湖大桥（莲花湖一号桥主桥）",
                "sszx": "csaqzx_ql",
                "tbsj": "0001-01-01T00:00:00",
                "yskzjbz": ""
            },
            "type": "Feature"
        }, {
            "geometry": {
                "coordinates": [115.218134, 29.848933],
                "type": "Point"
            },
            "properties": {
                "dsbm": "420200",
                "glmbbh": "LHHDQ",
                "glmblx": "glmblx0601",
                "lsh": "a03bef0f-06e4-4a82-911d-3d7d973dc102",
                "qhbm": "420222",
                "sfzx": 1,
                "sjbb": 1,
                "sjly": "",
                "sjtbzt": "",
                "spbfdz": "10.92.8.186",
                "spbh": "10.92.8.186",
                "spdwjd": 115.218134,
                "spdwwd": 29.848933,
                "spmc": "枪机北四10.92.8.186",
                "spszwz": "莲花湖大桥（莲花湖一号桥主桥）",
                "sszx": "csaqzx_ql",
                "tbsj": "0001-01-01T00:00:00",
                "yskzjbz": ""
            },
            "type": "Feature"
        }, {
            "geometry": {
                "coordinates": [115.215976, 29.848615],
                "type": "Point"
            },
            "properties": {
                "dsbm": "420200",
                "glmbbh": "LHHDQ",
                "glmblx": "glmblx0601",
                "lsh": "da42b776-0b28-4fd5-bb21-3ae3b215a078",
                "qhbm": "420222",
                "sfzx": 1,
                "sjbb": 1,
                "sjly": "",
                "sjtbzt": "",
                "spbfdz": "10.92.8.176",
                "spbh": "10.92.8.176",
                "spdwjd": 115.215976,
                "spdwwd": 29.848615,
                "spmc": "枪机南一",
                "spszwz": "莲花湖大桥（莲花湖一号桥主桥）",
                "sszx": "csaqzx_ql",
                "tbsj": "0001-01-01T00:00:00",
                "yskzjbz": ""
            },
            "type": "Feature"
        }, {
            "geometry": {
                "coordinates": [115.232915, 29.872118],
                "type": "Point"
            },
            "properties": {
                "dsbm": "420200",
                "glmbbh": "FCXXRXTQ",
                "glmblx": "glmblx0601",
                "lsh": "ac8ce0d4-3421-49b2-9b98-c7ee0b2fb234",
                "qhbm": "420222",
                "sfzx": 1,
                "sjbb": 1,
                "sjly": "",
                "sjtbzt": "",
                "spbfdz": "10.92.8.227",
                "spbh": "10.92.8.227",
                "spdwjd": 115.232915,
                "spdwwd": 29.872118,
                "spmc": "富川小学天桥北侧10.92.8.227",
                "spszwz": "富川小学人行天桥",
                "sszx": "csaqzx_ql",
                "tbsj": "0001-01-01T00:00:00",
                "yskzjbz": ""
            },
            "type": "Feature"
        }, {
            "geometry": {
                "coordinates": [0.0, 0.0],
                "type": "Point"
            },
            "properties": {
                "dsbm": "420200",
                "glmbbh": "DSHDQ",
                "glmblx": "glmblx0601",
                "lsh": "eb2d1177-7c36-4482-aa8a-b6a999f6467e",
                "qhbm": "420222",
                "sfzx": 1,
                "sjbb": 1,
                "sjly": "",
                "sjtbzt": "",
                "spbfdz": "10.92.8.231",
                "spbh": "10.92.8.231",
                "spdwjd": 0.0,
                "spdwwd": 0.0,
                "spmc": "",
                "spszwz": "独山湖大桥",
                "sszx": "csaqzx_ql",
                "tbsj": "0001-01-01T00:00:00",
                "yskzjbz": ""
            },
            "type": "Feature"
        }, {
            "geometry": {
                "coordinates": [0.0, 0.0],
                "type": "Point"
            },
            "properties": {
                "dsbm": "420200",
                "glmbbh": "DSHDQ",
                "glmblx": "glmblx0601",
                "lsh": "fe9fc883-1826-41d9-b92a-8bbd11bb7ef7",
                "qhbm": "420222",
                "sfzx": 1,
                "sjbb": 1,
                "sjly": "",
                "sjtbzt": "",
                "spbfdz": "10.92.8.232",
                "spbh": "10.92.8.232",
                "spdwjd": 0.0,
                "spdwwd": 0.0,
                "spmc": "",
                "spszwz": "独山湖大桥",
                "sszx": "csaqzx_ql",
                "tbsj": "0001-01-01T00:00:00",
                "yskzjbz": ""
            },
            "type": "Feature"
        }
    ],
    "name": "gspsp_dtrans_surveillance_video",
    "type": "FeatureCollection"
}
